OBJECT_NAME,OBJECT_ID,EPOCH,MEAN_MOTION,ECCENTRICITY,INCLINATION,RA_OF_ASC_NODE,ARG_OF_PERICENTER,MEAN_ANOMALY,EPHEMERIS_TYPE,CLASSIFICATION_TYPE,NORAD_CAT_ID,ELEMENT_SET_NO,REV_AT_EPOCH,BSTAR,MEAN_MOTION_DOT,MEAN_MOTION_DDOT
JUPITER 3 (ECHOSTAR 24),2023-108A,2026-07-14T10:51:29.480256,1.00272339,.00011081,0.0108,40.5711,70.6612,248.7625,0,U,57479,999,1091,0,-.157E-5,0
GALAXY 37 (G-37),2023-112A,2026-07-13T23:07:32.881728,1.00271325,.00017395,0.0218,73.5270,44.1230,34.0616,0,U,57493,999,1081,0,.42E-6,0
LUDI TANCE-4 01A,2023-120A,2026-07-13T21:29:10.302432,1.00276002,.00013716,15.0872,193.3078,18.9616,131.2714,0,U,57624,999,1081,0,-.179E-5,0
TJS-10,2023-169A,2026-07-13T17:52:09.208128,1.00274171,.0004074,2.6105,80.1722,115.9637,95.8858,0,U,58204,999,980,0,-.256E-5,0
ZHONGXING-6E,2023-172A,2026-07-14T16:55:11.377920,1.00272476,.0002698,0.0192,86.2131,23.7417,191.9164,0,U,58253,999,993,0,-.37E-5,0
YAOGAN-41,2023-197A,2026-07-14T15:42:47.726784,1.00265861,.00142726,3.0797,313.5741,198.6274,139.1258,0,U,58582,999,959,0,-.366E-5,0
OVZON-3,2024-003A,2026-07-13T05:11:37.493088,1.00269534,.0000327,0.0179,86.9492,215.9338,125.7993,0,U,58698,999,770,0,.49E-6,0
INSAT-3DS,2024-033A,2026-07-14T13:48:27.309312,1.00270944,.00010489,0.0931,264.8365,225.6738,91.1082,0,U,58990,999,4734,0,-.163E-5,0
MERAH PUTIH 2,2024-035A,2026-07-14T08:16:38.659296,1.00270544,.00010623,0.0215,82.0854,34.4456,52.7926,0,U,58995,999,886,0,-.365E-5,0
TJS-11,2024-037A,2026-07-14T05:23:54.483360,1.00274115,.0001789,4.1645,327.4164,149.4355,8.7674,0,U,59020,999,885,0,-.365E-5,0
HULIANWAN GAOGUI-01 (HG-01),2024-040A,2026-07-14T15:06:38.933856,1.00269773,.0001699,0.0737,333.8574,69.2949,149.6085,0,U,59069,999,760,0,.148E-5,0
EUTELSAT 36D,2024-059A,2026-07-14T15:06:38.933856,1.00269930,.00001862,0.0287,63.5173,191.1869,300.3320,0,U,59346,999,842,0,0,0
PAKSAT-MM1,2024-104A,2026-07-13T13:38:44.797056,1.00269751,.0001963,0.0311,143.3666,313.2921,77.6097,0,U,59915,999,779,0,.15E-5,0
ASTRA 1P (SES-24),2024-115A,2026-07-13T08:25:18.669792,1.00281209,.00014971,0.0666,329.5187,236.9138,230.3347,0,U,60086,999,746,0,.118E-5,0
GOES 19,2024-119A,2026-07-14T13:03:31.422816,1.00271595,.00004361,0.0031,131.3626,84.4967,197.2282,0,U,60133,999,723,0,-.256E-5,0
ZHONGXING-3A,2024-122A,2026-07-14T01:55:27.572736,1.00270027,.0001581,0.0264,122.6465,43.7146,256.0432,0,U,60179,999,757,0,-.319E-5,0
TURKSAT 6A,2024-127A,2026-07-14T15:06:38.933856,1.00269475,.00029311,0.0170,212.4375,317.5496,31.1429,0,U,60233,999,729,0,0,0
HULIANWAN GAOGUI-02 (HG-02),2024-135A,2026-07-14T11:38:38.651712,1.00269645,.00063297,0.0464,357.4031,10.4285,252.1988,0,U,60327,999,777,0,-.182E-5,0
ZHONGXING-4A,2024-151A,2026-07-14T13:58:41.328192,1.00267574,.00004006,1.2452,270.4997,299.9470,49.8508,0,U,60606,999,702,0,-.369E-5,0
HULIANWAN GAOGUI-03 (HG-03),2024-181A,2026-07-14T14:45:43.500384,1.00269125,.00010487,0.0507,359.9127,85.0795,351.7884,0,U,61503,999,710,0,-.249E-5,0
DSN-3 (KIRAMEKI-3),2024-198A,2026-07-14T12:23:10.588128,1.00269924,.00008392,0.0248,55.1834,85.9913,121.0749,0,U,61733,999,619,0,0,0
KOREASAT 6A,2024-206A,2026-07-14T14:07:24.372192,1.00270384,.00007065,0.0143,86.4772,5.7391,168.0923,0,U,61910,999,611,0,-.37E-5,0
OPTUS-X (ADS-01),2024-212A,2026-07-14T12:26:57.427872,1.00270027,.00023808,0.0134,54.6974,99.4810,121.3235,0,U,62006,999,603,0,-.152E-5,0
GSAT-N2 (GSAT-20),2024-214A,2026-07-14T13:44:27.692736,1.00270912,.0002629,0.0762,262.6379,142.7966,161.0419,0,U,62028,999,617,0,-.27E-6,0
SXM-9,2024-234A,2026-07-14T13:00:46.685664,1.00269669,.00049697,0.0196,331.6964,346.4157,84.3178,0,U,62259,999,584,0,-.213E-5,0
TJS-12,2024-246A,2026-07-14T12:14:38.664672,1.00269078,.00017753,0.6131,301.9933,96.6305,223.9368,0,U,62374,999,583,0,-.238E-5,0
NUVIEW ALPHA,2024-252B,2026-07-14T07:53:24.674784,1.00271129,.00009694,0.0425,24.3128,55.1873,247.9382,0,U,62455,999,409,0,-.222E-5,0
AGILA,2024-252C,2026-07-14T12:43:38.568864,1.00270642,.00011498,0.0484,132.0160,345.5946,157.8505,0,U,62456,999,543,0,-.19E-5,0
NUVIEW BRAVO,2024-252D,2026-07-14T11:24:38.874816,1.00270733,.00014822,0.0692,164.8470,342.5421,232.9992,0,U,62457,999,406,0,-.222E-5,0
THURAYA-4,2025-001A,2026-07-14T15:06:02.934432,1.00271942,.00002127,0.0181,68.4788,224.2709,270.5513,0,U,62483,999,445,0,.131E-5,0
SHIJIAN-25 (SJ-25),2025-002A,2026-07-13T12:21:30.377088,1.00262897,.0052162,5.1734,60.9955,175.3750,7.5757,0,U,62485,999,562,0,-.359E-5,0
TJS-14,2025-017A,2026-07-14T15:22:38.563968,1.00275636,.0001816,0.7223,297.6847,294.1160,309.8148,0,U,62804,999,554,0,.109E-5,0
