JUPITER 3 (ECHOSTAR 24) 
1 57479U 23108A   26195.45242454 -.00000157  00000+0  00000+0 0  9991
2 57479   0.0108  40.5711 0001108  70.6612 248.7625  1.00272339 10915
GALAXY 37 (G-37)        
1 57493U 23112A   26194.96357502  .00000042  00000+0  00000+0 0  9990
2 57493   0.0218  73.5270 0001739  44.1230  34.0616  1.00271325 10810
LUDI TANCE-4 01A        
1 57624U 23120A   26194.89525813 -.00000179  00000+0  00000+0 0  9991
2 57624  15.0872 193.3078 0001371  18.9616 131.2714  1.00276002 10810
TJS-10                  
1 58204U 23169A   26194.74455102 -.00000256  00000+0  00000+0 0  9992
2 58204   2.6105  80.1722 0004074 115.9637  95.8858  1.00274171  9805
ZHONGXING-6E            
1 58253U 23172A   26195.70499280 -.00000370  00000+0  00000+0 0  9999
2 58253   0.0192  86.2131 0002698  23.7417 191.9164  1.00272476  9938
YAOGAN-41               
1 58582U 23197A   26195.65471906 -.00000366  00000+0  00000+0 0  9995
2 58582   3.0797 313.5741 0014272 198.6274 139.1258  1.00265861  9594
OVZON-3                 
1 58698U 24003A   26194.21640617  .00000049  00000+0  00000+0 0  9995
2 58698   0.0179  86.9492 0000327 215.9338 125.7993  1.00269534  7706
INSAT-3DS               
1 58990U 24033A   26195.57531608 -.00000163  00000+0  00000+0 0  9990
2 58990   0.0931 264.8365 0001048 225.6738  91.1082  1.00270944 47342
MERAH PUTIH 2           
1 58995U 24035A   26195.34489189 -.00000365  00000+0  00000+0 0  9992
2 58995   0.0215  82.0854 0001062  34.4456  52.7926  1.00270544  8864
TJS-11                  
1 59020U 24037A   26195.22493615 -.00000365  00000+0  00000+0 0  9990
2 59020   4.1645 327.4164 0001789 149.4355   8.7674  1.00274115  8855
HULIANWAN GAOGUI-01 (H*)
1 59069U 24040A   26195.62961729  .00000148  00000+0  00000+0 0  9995
2 59069   0.0737 333.8574 0001699  69.2949 149.6085  1.00269773  7606
EUTELSAT 36D            
1 59346U 24059A   26195.62961729  .00000000  00000+0  00000+0 0  9990
2 59346   0.0287  63.5173 0000186 191.1869 300.3320  1.00269930  8426
PAKSAT-MM1              
1 59915U 24104A   26194.56857404  .00000150  00000+0  00000+0 0  9995
2 59915   0.0311 143.3666 0001963 313.2921  77.6097  1.00269751  7795
ASTRA 1P (SES-24)       
1 60086U 24115A   26194.35091053  .00000118  00000+0  00000+0 0  9999
2 60086   0.0666 329.5187 0001497 236.9138 230.3347  1.00281209  7460
GOES 19                 
1 60133U 24119A   26195.54411369 -.00000256  00000+0  00000+0 0  9998
2 60133   0.0031 131.3626 0000436  84.4967 197.2282  1.00271595  7235
ZHONGXING-3A            
1 60179U 24122A   26195.08018024 -.00000319  00000+0  00000+0 0  9992
2 60179   0.0264 122.6465 0001581  43.7146 256.0432  1.00270027  7573
TURKSAT 6A              
1 60233U 24127A   26195.62961729  .00000000  00000+0  00000+0 0  9993
2 60233   0.0170 212.4375 0002931 317.5496  31.1429  1.00269475  7290
HULIANWAN GAOGUI-02 (H*)
1 60327U 24135A   26195.48516958 -.00000182  00000+0  00000+0 0  9992
2 60327   0.0464 357.4031 0006329  10.4285 252.1988  1.00269645  7776
ZHONGXING-4A            
1 60606U 24151A   26195.58242278 -.00000369  00000+0  00000+0 0  9999
2 60606   1.2452 270.4997 0000400 299.9470  49.8508  1.00267574  7021
HULIANWAN GAOGUI-03 (H*)
1 61503U 24181A   26195.61508681 -.00000249  00000+0  00000+0 0  9993
2 61503   0.0507 359.9127 0001048  85.0795 351.7884  1.00269125  7102
DSN-3 (KIRAMEKI-3)      
1 61733U 24198A   26195.51609477  .00000000  00000+0  00000+0 0  9994
2 61733   0.0248  55.1834 0000839  85.9913 121.0749  1.00269924  6190
KOREASAT 6A             
1 61910U 24206A   26195.58847653 -.00000370  00000+0  00000+0 0  9999
2 61910   0.0143  86.4772 0000706   5.7391 168.0923  1.00270384  6111
OPTUS-X (ADS-01)        
1 62006U 24212A   26195.51872023 -.00000152  00000+0  00000+0 0  9993
2 62006   0.0134  54.6974 0002380  99.4810 121.3235  1.00270027  6038
GSAT-N2 (GSAT-20)       
1 62028U 24214A   26195.57254274 -.00000027  00000+0  00000+0 0  9998
2 62028   0.0762 262.6379 0002629 142.7966 161.0419  1.00270912  6172
SXM-9                   
1 62259U 24234A   26195.54220701 -.00000213  00000+0  00000+0 0  9998
2 62259   0.0196 331.6964 0004969 346.4157  84.3178  1.00269669  5849
TJS-12                  
1 62374U 24246A   26195.51016973 -.00000238  00000+0  00000+0 0  9997
2 62374   0.6131 301.9933 0001775  96.6305 223.9368  1.00269078  5834
NUVIEW ALPHA            
1 62455U 24252B   26195.32875781 -.00000222  00000+0  00000+0 0  9996
2 62455   0.0425  24.3128 0000969  55.1873 247.9382  1.00271129  4099
AGILA                   
1 62456U 24252C   26195.53030751 -.00000190  00000+0  00000+0 0  9994
2 62456   0.0484 132.0160 0001149 345.5946 157.8505  1.00270642  5430
NUVIEW BRAVO            
1 62457U 24252D   26195.47544994 -.00000222  00000+0  00000+0 0  9993
2 62457   0.0692 164.8470 0001482 342.5421 232.9992  1.00270733  4068
THURAYA-4               
1 62483U 25001A   26195.62920063  .00000131  00000+0  00000+0 0  9995
2 62483   0.0181  68.4788 0000212 224.2709 270.5513  1.00271942  4459
SHIJIAN-25 (SJ-25)      
1 62485U 25002A   26194.51493492 -.00000359  00000+0  00000+0 0  9999
2 62485   5.1734  60.9955 0052162 175.3750   7.5757  1.00262897  5624
TJS-14                  
1 62804U 25017A   26195.64072412  .00000109  00000+0  00000+0 0  9992
2 62804   0.7223 297.6847 0001816 294.1160 309.8148  1.00275636  5545
